[{"OBJECT_NAME":"STARLINK-30771","OBJECT_ID":"2023-166V","EPOCH":"2026-03-09T15:27:03.297888","MEAN_MOTION":15.30196951,"ECCENTRICITY":5.45e-5,"INCLINATION":53.159,"RA_OF_ASC_NODE":219.7305,"ARG_OF_PERICENTER":105.8758,"MEAN_ANOMALY":254.2303,"EPHEMERIS_TYPE":0,"CLASSIFICATION_TYPE":"U","NORAD_CAT_ID":58169,"ELEMENT_SET_NO":999,"REV_AT_EPOCH":13317,"BSTAR":0.00013788,"MEAN_MOTION_DOT":3.727e-5,"MEAN_MOTION_DDOT":0},{"OBJECT_NAME":"GEOSCAN 3 (RS92S3)","OBJECT_ID":"2025-155T","EPOCH":"2026-03-09T22:52:10.587648","MEAN_MOTION":15.31696739,"ECCENTRICITY":0.00068078,"INCLINATION":97.4455,"RA_OF_ASC_NODE":37.9971,"ARG_OF_PERICENTER":154.1387,"MEAN_ANOMALY":206.0196,"EPHEMERIS_TYPE":0,"CLASSIFICATION_TYPE":"U","NORAD_CAT_ID":64893,"ELEMENT_SET_NO":999,"REV_AT_EPOCH":6564,"BSTAR":0.00078414081,"MEAN_MOTION_DOT":0.00023985,"MEAN_MOTION_DDOT":0}]
